NORAD_CAT_ID,OBJECT_NAME,OBJECT_TYPE,EPOCH,MEAN_MOTION,ECCENTRICITY,INCLINATION,RA_OF_ASC_NODE,ARG_OF_PERICENTER,MEAN_ANOMALY,BSTAR,MEAN_MOTION_DOT,MEAN_MOTION_DDOT,TLE_LINE0,TLE_LINE1,TLE_LINE2,SEMIMAJOR_AXIS,PERIOD,APOGEE,PERIGEE,DECAYED
53831.0,STARLINK-4649,PAYLOAD,2024-04-26 07:09:04,15.08845584,0.0001355,53.2171,127.4814,96.8853,263.2293,8.2525e-05,1.026e-05,0.0,0 STARLINK-4649,1 53831U 22114P   24117.29796623  .00001026  00000-0  82525-4 0  9994,2 53831  53.2171 127.4814 0001355  96.8853 263.2293 15.08845584 89272,6917.863,95.437,540.666,538.791,0.0
53831.0,STARLINK-4649,PAYLOAD,2024-04-27 13:21:23,15.08846143,0.0001312,53.2169,121.8309,90.7175,269.3968,3.4774e-05,2.66e-06,0.0,0 STARLINK-4649,1 53831U 22114P   24118.55652282  .00000266  00000-0  34774-4 0  9994,2 53831  53.2169 121.8309 0001312  90.7175 269.3968 15.08846143 89468,6917.862,95.437,540.634,538.819,0.0
53831.0,STARLINK-4649,PAYLOAD,2024-04-27 22:53:42,15.08846369,0.0001362,53.217,120.0466,97.8341,262.2806,5.8123e-05,6.37e-06,0.0,0 STARLINK-4649,1 53831U 22114P   24118.95395971  .00000637  00000-0  58123-4 0  9993,2 53831  53.2170 120.0466 0001362  97.8341 262.2806 15.08846369 90064,6917.861,95.437,540.668,538.784,0.0
53831.0,STARLINK-4649,PAYLOAD,2024-04-28 03:39:52,15.08831947,0.0001339,53.2169,119.1546,97.757,262.3575,-6.5456e-05,-1.329e-05,0.0,0 STARLINK-4649,1 53831U 22114P   24119.15269537 -.00001329  00000-0 -65456-4 0  9992,2 53831  53.2169 119.1546 0001339  97.7570 262.3575 15.08831947 89559,6917.905,95.438,540.696,538.844,0.0
53831.0,STARLINK-4649,PAYLOAD,2024-04-28 13:12:11,15.08834639,0.0001324,53.2169,117.3704,93.2385,266.8759,-3.9086e-05,-9.1e-06,0.0,0 STARLINK-4649,1 53831U 22114P   24119.55013396 -.00000910  00000-0 -39086-4 0  9991,2 53831  53.2169 117.3704 0001324  93.2385 266.8759 15.08834639 90156,6917.897,95.438,540.678,538.846,0.0
53831.0,STARLINK-4649,PAYLOAD,2024-04-28 16:22:57,15.08836114,0.0001307,53.2169,116.776,93.6831,266.4311,-2.3396e-05,-6.6e-06,0.0,0 STARLINK-4649,1 53831U 22114P   24119.68261287 -.00000660  00000-0 -23396-4 0  9998,2 53831  53.2169 116.7760 0001307  93.6831 266.4311 15.08836114 90174,6917.892,95.438,540.661,538.853,0.0
53831.0,STARLINK-4649,PAYLOAD,2024-04-29 05:06:02,15.08834785,0.0001303,53.217,114.3971,94.2029,265.9112,3.0488e-05,1.97e-06,0.0,0 STARLINK-4649,1 53831U 22114P   24120.21253345  .00000197  00000-0  30488-4 0  9998,2 53831  53.2170 114.3971 0001303  94.2029 265.9112 15.08834785 89719,6917.896,95.438,540.663,538.86,0.0
53831.0,STARLINK-4649,PAYLOAD,2024-04-29 09:52:12,15.08837942,0.0001315,53.217,113.5049,93.6127,266.5015,4.9538e-05,5.01e-06,0.0,0 STARLINK-4649,1 53831U 22114P   24120.41125155  .00000501  00000-0  49538-4 0  9992,2 53831  53.2170 113.5049 0001315  93.6127 266.5015 15.08837942 90282,6917.887,95.438,540.661,538.842,0.0
53831.0,STARLINK-4649,PAYLOAD,2024-04-29 16:13:44,15.08841923,0.000131,53.2171,112.3155,93.6708,266.4434,6.2562e-05,7.08e-06,0.0,0 STARLINK-4649,1 53831U 22114P   24120.67620870  .00000708  00000-0  62562-4 0  9995,2 53831  53.2171 112.3155 0001310  93.6708 266.4434 15.08841923 89789,6917.875,95.437,540.646,538.833,0.0
53831.0,STARLINK-4649,PAYLOAD,2024-04-30 04:56:50,15.08832249,0.0001343,53.2172,109.9366,96.7522,263.3623,9.2263e-05,1.18e-05,0.0,0 STARLINK-4649,1 53831U 22114P   24121.20613590  .00001180  00000-0  92263-4 0  9992,2 53831  53.2172 109.9366 0001343  96.7522 263.3623 15.08832249 89866,6917.904,95.438,540.698,538.84,0.0
53831.0,STARLINK-4649,PAYLOAD,2024-04-30 14:29:08,15.08840289,0.0001334,53.2172,108.1525,96.8607,263.2537,0.00013926,1.929e-05,0.0,0 STARLINK-4649,1 53831U 22114P   24121.60357102  .00001929  00000-0  13926-3 0  9999,2 53831  53.2172 108.1525 0001334  96.8607 263.2537 15.08840289 90463,6917.88,95.438,540.667,538.822,0.0
53831.0,STARLINK-4649,PAYLOAD,2024-04-30 16:04:31,15.08841295,0.0001336,53.2173,107.8552,95.9979,264.1166,0.00013563,1.871e-05,0.0,0 STARLINK-4649,1 53831U 22114P   24121.66981060  .00001871  00000-0  13563-3 0  9994,2 53831  53.2173 107.8552 0001336  95.9979 264.1166 15.08841295 89930,6917.876,95.437,540.666,538.817,0.0
53831.0,STARLINK-4649,PAYLOAD,2024-04-30 22:26:04,15.08841779,0.0001373,53.2174,106.6661,85.2334,274.8815,0.00013386,1.843e-05,0.0,0 STARLINK-4649,1 53831U 22114P   24121.93477083  .00001843  00000-0  13386-3 0  9991,2 53831  53.2174 106.6661 0001373  85.2334 274.8815 15.08841779 90519,6917.875,95.437,540.69,538.79,0.0
53831.0,STARLINK-4649,PAYLOAD,2024-05-01 04:47:37,15.08834699,0.0001356,53.2179,105.4771,91.1141,269.0007,8.3001e-06,-1.56e-06,0.0,0 STARLINK-4649,1 53831U 22114P   24122.19974053 -.00000156  00000-0  83001-5 0  9999,2 53831  53.2179 105.4771 0001356  91.1141 269.0007 15.08834699 90013,6917.897,95.438,540.7,538.824,0.0
53831.0,STARLINK-4649,PAYLOAD,2024-05-01 12:44:32,15.08842217,0.0001338,53.218,103.99,95.3806,264.7339,6.0008e-05,6.67e-06,0.0,0 STARLINK-4649,1 53831U 22114P   24122.53093358  .00000667  00000-0  60008-4 0  9994,2 53831  53.2180 103.9900 0001338  95.3806 264.7339 15.08842217 90066,6917.874,95.437,540.664,538.813,0.0
53831.0,STARLINK-4649,PAYLOAD,2024-05-01 22:16:51,15.08841407,0.0001389,53.2175,102.2056,88.2033,271.9118,5.827e-05,6.4e-06,0.0,0 STARLINK-4649,1 53831U 22114P   24122.92837393  .00000640  00000-0  58270-4 0  9991,2 53831  53.2175 102.2056 0001389  88.2033 271.9118 15.08841407 90664,6917.876,95.437,540.702,538.78,0.0
53831.0,STARLINK-4649,PAYLOAD,2024-05-02 12:35:19,15.08848411,0.0001373,53.218,99.5296,85.2211,274.8938,9.0938e-05,1.16e-05,0.0,0 STARLINK-4649,1 53831U 22114P   24123.52452844  .00001160  00000-0  90938-4 0  9997,2 53831  53.2180  99.5296 0001373  85.2211 274.8938 15.08848411 90756,6917.855,95.437,540.67,538.77,0.0
53831.0,STARLINK-4649,PAYLOAD,2024-05-02 15:46:05,15.08846507,0.0001371,53.2182,98.9351,84.2218,275.8931,6.7389e-05,7.85e-06,0.0,0 STARLINK-4649,1 53831U 22114P   24123.65700977  .00000785  00000-0  67389-4 0  9990,2 53831  53.2182  98.9351 0001371  84.2218 275.8931 15.08846507 90238,6917.86,95.437,540.674,538.777,0.0
53831.0,STARLINK-4649,PAYLOAD,2024-05-03 12:26:05,15.08853349,0.0001347,53.2184,95.0686,87.1799,272.9347,0.0001454,2.028e-05,0.0,0 STARLINK-4649,1 53831U 22114P   24124.51812122  .00002028  00000-0  14540-3 0  9994,2 53831  53.2184  95.0686 0001347  87.1799 272.9347 15.08853349 90903,6917.84,95.437,540.636,538.773,0.0
53831.0,STARLINK-4649,PAYLOAD,2024-05-03 21:58:25,15.08840015,0.0001432,53.2181,93.2844,97.6154,262.5001,-3.1469e-06,-3.38e-06,0.0,0 STARLINK-4649,1 53831U 22114P   24124.91557260 -.00000338  00000-0 -31469-5 0  9992,2 53831  53.2181  93.2844 0001432  97.6154 262.5001 15.08840015 90427,6917.88,95.438,540.736,538.755,0.0
53831.0,STARLINK-4649,PAYLOAD,2024-05-04 07:30:44,15.08834539,0.0001356,53.218,91.499,105.4169,254.6973,-3.6835e-05,-8.74e-06,0.0,0 STARLINK-4649,1 53831U 22114P   24125.31301801 -.00000874  00000-0 -36835-4 0  9991,2 53831  53.2180  91.4990 0001356 105.4169 254.6973 15.08834539 90487,6917.897,95.438,540.7,538.824,0.0
53831.0,STARLINK-4649,PAYLOAD,2024-05-05 07:21:31,15.08842721,0.0001341,53.2183,87.0393,91.6607,268.4539,2.3751e-05,9e-07,0.0,0 STARLINK-4649,1 53831U 22114P   24126.30661594  .00000090  00000-0  23751-4 0  9990,2 53831  53.2183  87.0393 0001341  91.6607 268.4539 15.08842721 90635,6917.872,95.437,540.665,538.809,0.0
53831.0,STARLINK-4649,PAYLOAD,2024-05-06 13:33:50,15.0885251,0.0001336,53.2188,81.3893,88.3507,271.7638,0.00029811,4.461e-05,0.0,0 STARLINK-4649,1 53831U 22114P   24127.56516833  .00004461  00000-0  29811-3 0  9992,2 53831  53.2188  81.3893 0001336  88.3507 271.7638 15.08852510 91363,6917.842,95.437,540.631,538.783,0.0
53831.0,STARLINK-4649,PAYLOAD,2024-05-06 21:30:46,15.08844731,0.0001831,53.2179,79.9021,81.4967,278.6233,0.00012766,1.744e-05,0.0,0 STARLINK-4649,1 53831U 22114P   24127.89637617  .00001744  00000-0  12766-3 0  9994,2 53831  53.2179  79.9021 0001831  81.4967 278.6233 15.08844731 90871,6917.866,95.437,540.998,538.464,0.0
53831.0,STARLINK-4649,PAYLOAD,2024-05-07 13:24:37,15.08848323,0.0001448,53.2185,76.929,87.433,272.6828,0.00014497,2.02e-05,0.0,0 STARLINK-4649,1 53831U 22114P   24128.55877218  .00002020  00000-0  14497-3 0  9992,2 53831  53.2185  76.9290 0001448  87.4330 272.6828 15.08848323 91514,6917.855,95.437,540.722,538.718,0.0
53831.0,STARLINK-4649,PAYLOAD,2024-05-08 02:07:43,15.08834273,0.0001436,53.2185,74.5515,99.2469,260.8686,-0.00011194,-2.069e-05,0.0,0 STARLINK-4649,1 53831U 22114P   24129.08869836 -.00002069  00000-0 -11194-3 0  9994,2 53831  53.2185  74.5515 0001436  99.2469 260.8686 15.08834273 91058,6917.898,95.438,540.756,538.769,0.0
53831.0,STARLINK-4649,PAYLOAD,2024-05-08 13:15:25,15.08847564,0.0001561,53.2194,72.4707,91.8508,268.2663,0.00023877,3.515e-05,0.0,0 STARLINK-4649,1 53831U 22114P   24129.55237630  .00003515  00000-0  23877-3 0  9993,2 53831  53.2194  72.4707 0001561  91.8508 268.2663 15.08847564 91121,6917.857,95.437,540.802,538.642,0.0
53831.0,STARLINK-4649,PAYLOAD,2024-05-09 01:58:31,15.0883227,0.0001713,53.2204,70.0904,88.3118,271.807,2.4724e-05,1.05e-06,0.0,0 STARLINK-4649,1 53831U 22114P   24130.08230466  .00000105  00000-0  24724-4 0  9998,2 53831  53.2204  70.0904 0001713  88.3118 271.8070 15.08832270 91202,6917.904,95.438,540.954,538.584,0.0
53831.0,STARLINK-4649,PAYLOAD,2024-05-09 13:06:12,15.08848298,0.000174,53.221,68.0056,91.2813,268.8379,0.00037157,5.632e-05,0.0,0 STARLINK-4649,1 53831U 22114P   24130.54597994  .00005632  00000-0  37157-3 0  9994,2 53831  53.2210  68.0056 0001740  91.2813 268.8379 15.08848298 91811,6917.855,95.437,540.924,538.516,0.0
53831.0,STARLINK-4649,PAYLOAD,2024-05-10 03:24:41,15.08842894,0.0001434,53.2186,65.3334,85.8204,274.2952,0.00020095,2.912e-05,0.0,0 STARLINK-4649,1 53831U 22114P   24131.14214264  .00002912  00000-0  20095-3 0  9998,2 53831  53.2186  65.3334 0001434  85.8204 274.2952 15.08842894 91369,6917.872,95.437,540.729,538.745,0.0
